{
  "norad_id": 63119,
  "name": "STARLINK-32941",
  "history": [
    {
      "epoch": "2026-03-28T19:39:10.679040Z",
      "apogee_km": 483.90811576742544,
      "perigee_km": 481.9971650807747,
      "latitude_deg": -1.722050973550925e-05,
      "longitude_deg": 132.34823109024867,
      "height_km": 482.67723089572576,
      "semi_major_axis_km": 6861.089640424099,
      "eccentricity": 0.00013926,
      "inclination_deg": 42.9998,
      "raan_deg": 253.3766,
      "arg_perigee_deg": 273.125,
      "mean_anomaly_deg": 86.9442,
      "mean_motion_rev_day": 15.27612213
    },
    {
      "epoch": "2026-03-30T03:02:17.409696Z",
      "apogee_km": 483.8343764110987,
      "perigee_km": 482.20965395630265,
      "latitude_deg": 8.825780072353683e-06,
      "longitude_deg": 12.89417056668552,
      "height_km": 482.0254201969206,
      "semi_major_axis_km": 6861.1590151837,
      "eccentricity": 0.0001184,
      "inclination_deg": 42.9984,
      "raan_deg": 245.9895,
      "arg_perigee_deg": 18.2397,
      "mean_anomaly_deg": 341.8497,
      "mean_motion_rev_day": 15.27589044
    },
    {
      "epoch": "2026-03-30T03:02:17.410560Z",
      "apogee_km": 483.8342391879178,
      "perigee_km": 482.20979117948264,
      "latitude_deg": 9.305097913359556e-06,
      "longitude_deg": 12.894267468038406,
      "height_km": 482.02555050872746,
      "semi_major_axis_km": 6861.1590151837,
      "eccentricity": 0.00011838,
      "inclination_deg": 42.9984,
      "raan_deg": 245.9896,
      "arg_perigee_deg": 18.2397,
      "mean_anomaly_deg": 341.8497,
      "mean_motion_rev_day": 15.27589044
    },
    {
      "epoch": "2026-03-30T10:53:04.278336Z",
      "apogee_km": 484.06769350402647,
      "perigee_km": 482.1073044401801,
      "latitude_deg": -1.5004137756444526e-05,
      "longitude_deg": -106.96897871190492,
      "height_km": 482.666476884084,
      "semi_major_axis_km": 6861.224498972103,
      "eccentricity": 0.00014286,
      "inclination_deg": 43.0003,
      "raan_deg": 244.1439,
      "arg_perigee_deg": 281.6413,
      "mean_anomaly_deg": 78.4278,
      "mean_motion_rev_day": 15.27567175
    },
    {
      "epoch": "2026-03-30T20:18:00.475776Z",
      "apogee_km": 483.9586065519152,
      "perigee_km": 482.0507974902521,
      "latitude_deg": 3.7885949432933555e-06,
      "longitude_deg": 109.1941004038797,
      "height_km": 482.5512198601336,
      "semi_major_axis_km": 6861.141702021084,
      "eccentricity": 0.00013903,
      "inclination_deg": 42.9999,
      "raan_deg": 241.9278,
      "arg_perigee_deg": 283.9623,
      "mean_anomaly_deg": 76.1074,
      "mean_motion_rev_day": 15.27594826
    },
    {
      "epoch": "2026-03-31T19:50:21.136128Z",
      "apogee_km": 483.6736248686966,
      "perigee_km": 482.27533034956014,
      "latitude_deg": -3.178543727246099e-05,
      "longitude_deg": 109.60246365503981,
      "height_km": 482.6773288751895,
      "semi_major_axis_km": 6861.111477609128,
      "eccentricity": 0.0001019,
      "inclination_deg": 42.9997,
      "raan_deg": 236.389,
      "arg_perigee_deg": 276.0344,
      "mean_anomaly_deg": 84.0391,
      "mean_motion_rev_day": 15.2760492
    },
    {
      "epoch": "2026-04-01T16:14:23.396352Z",
      "apogee_km": 483.6633894601582,
      "perigee_km": 482.3817248548812,
      "latitude_deg": -3.450352985067962e-05,
      "longitude_deg": 157.9557202195328,
      "height_km": 482.9193957008311,
      "semi_major_axis_km": 6861.15955715752,
      "eccentricity": 9.34e-05,
      "inclination_deg": 42.9998,
      "raan_deg": 231.5895,
      "arg_perigee_deg": 259.1537,
      "mean_anomaly_deg": 100.9209,
      "mean_motion_rev_day": 15.27588863
    },
    {
      "epoch": "2026-04-02T17:20:52.486080Z",
      "apogee_km": 484.279077861489,
      "perigee_km": 481.54604737871523,
      "latitude_deg": -5.744636105848922e-06,
      "longitude_deg": 134.3923923677318,
      "height_km": 482.4422828425562,
      "semi_major_axis_km": 6861.049562620102,
      "eccentricity": 0.00019917,
      "inclination_deg": 42.9988,
      "raan_deg": 225.6785,
      "arg_perigee_deg": 280.4272,
      "mean_anomaly_deg": 79.6355,
      "mean_motion_rev_day": 15.27625598
    },
    {
      "epoch": "2026-04-03T16:53:15.467136Z",
      "apogee_km": 483.9030962611814,
      "perigee_km": 482.3167759695516,
      "latitude_deg": -2.5191446419854584e-05,
      "longitude_deg": 134.7895755453675,
      "height_km": 482.6642716051568,
      "semi_major_axis_km": 6861.246936115366,
      "eccentricity": 0.0001156,
      "inclination_deg": 42.9995,
      "raan_deg": 220.1382,
      "arg_perigee_deg": 286.2614,
      "mean_anomaly_deg": 73.811,
      "mean_motion_rev_day": 15.27559682
    },
    {
      "epoch": "2026-04-04T08:34:49.213920Z",
      "apogee_km": 483.9085500585652,
      "perigee_km": 482.07621684541937,
      "latitude_deg": -2.7026952889245857e-05,
      "longitude_deg": -104.93671497109241,
      "height_km": 482.6252516751896,
      "semi_major_axis_km": 6861.129383451992,
      "eccentricity": 0.00013353,
      "inclination_deg": 42.9967,
      "raan_deg": 216.447,
      "arg_perigee_deg": 279.0063,
      "mean_anomaly_deg": 81.0637,
      "mean_motion_rev_day": 15.2759894
    },
    {
      "epoch": "2026-04-05T14:23:48.992640Z",
      "apogee_km": 483.8681490788431,
      "perigee_km": 482.2626277199579,
      "latitude_deg": 1.898969378112786e-06,
      "longitude_deg": 159.57381173121445,
      "height_km": 482.9947500650065,
      "semi_major_axis_km": 6861.202388399401,
      "eccentricity": 0.000117,
      "inclination_deg": 42.9973,
      "raan_deg": 209.4311,
      "arg_perigee_deg": 258.9985,
      "mean_anomaly_deg": 101.0735,
      "mean_motion_rev_day": 15.27574559
    },
    {
      "epoch": "2026-04-05T14:23:48.993504Z",
      "apogee_km": 483.8678746307478,
      "perigee_km": 482.2629021680532,
      "latitude_deg": -1.1870702994745847e-06,
      "longitude_deg": 159.57380482996282,
      "height_km": 482.994697697908,
      "semi_major_axis_km": 6861.202388399401,
      "eccentricity": 0.00011696,
      "inclination_deg": 42.9973,
      "raan_deg": 209.4311,
      "arg_perigee_deg": 258.9985,
      "mean_anomaly_deg": 101.0735,
      "mean_motion_rev_day": 15.27574559
    },
    {
      "epoch": "2026-04-05T23:48:45.333504Z",
      "apogee_km": 484.2255763318908,
      "perigee_km": 481.7654486582114,
      "latitude_deg": 4.439302472759093e-05,
      "longitude_deg": 15.7373157317975,
      "height_km": 482.71673818815447,
      "semi_major_axis_km": 6861.132512495051,
      "eccentricity": 0.00017928,
      "inclination_deg": 42.9994,
      "raan_deg": 207.216,
      "arg_perigee_deg": 272.5965,
      "mean_anomaly_deg": 87.4682,
      "mean_motion_rev_day": 15.27597895
    },
    {
      "epoch": "2026-04-07T13:28:28.660512Z",
      "apogee_km": 483.9848224251,
      "perigee_km": 481.92951305621045,
      "latitude_deg": 2.2973305331831838e-05,
      "longitude_deg": 160.3986347186053,
      "height_km": 482.91441748836723,
      "semi_major_axis_km": 6861.0941677406545,
      "eccentricity": 0.00014978,
      "inclination_deg": 42.9992,
      "raan_deg": 198.3546,
      "arg_perigee_deg": 259.8779,
      "mean_anomaly_deg": 100.1904,
      "mean_motion_rev_day": 15.27610701
    },
    {
      "epoch": "2026-04-07T16:36:47.172960Z",
      "apogee_km": 483.9801193703179,
      "perigee_km": 481.9025848452993,
      "latitude_deg": -2.6606350543909647e-05,
      "longitude_deg": 112.45505364362954,
      "height_km": 482.8848167343569,
      "semi_major_axis_km": 6861.078352107808,
      "eccentricity": 0.0001514,
      "inclination_deg": 42.9992,
      "raan_deg": 197.6171,
      "arg_perigee_deg": 260.7598,
      "mean_anomaly_deg": 99.3082,
      "mean_motion_rev_day": 15.27615983
    },
    {
      "epoch": "2026-04-08T14:34:59.168064Z",
      "apogee_km": 484.21778843516313,
      "perigee_km": 481.8878655937069,
      "latitude_deg": 2.1654565682679586e-05,
      "longitude_deg": 136.83294695004804,
      "height_km": 482.7328329821812,
      "semi_major_axis_km": 6861.189827014435,
      "eccentricity": 0.00016979,
      "inclination_deg": 42.9999,
      "raan_deg": 192.4472,
      "arg_perigee_deg": 274.7729,
      "mean_anomaly_deg": 85.2929,
      "mean_motion_rev_day": 15.27578754
    },
    {
      "epoch": "2026-04-09T12:33:10.519488Z",
      "apogee_km": 483.8938042707641,
      "perigee_km": 482.1262355754916,
      "latitude_deg": 2.6237917969990936e-08,
      "longitude_deg": 161.2124551114584,
      "height_km": 482.7619369806678,
      "semi_major_axis_km": 6861.147019923127,
      "eccentricity": 0.00012881,
      "inclination_deg": 42.9971,
      "raan_deg": 187.2763,
      "arg_perigee_deg": 271.5801,
      "mean_anomaly_deg": 88.4903,
      "mean_motion_rev_day": 15.2759305
    },
    {
      "epoch": "2026-04-10T05:48:53.487072Z",
      "apogee_km": 483.7596101921454,
      "perigee_km": 482.1773020518549,
      "latitude_deg": 1.1962197595476709e-05,
      "longitude_deg": -102.48868822054628,
      "height_km": 482.5920810990129,
      "semi_major_axis_km": 6861.105456122,
      "eccentricity": 0.00011531,
      "inclination_deg": 42.9947,
      "raan_deg": 183.2131,
      "arg_perigee_deg": 281.0972,
      "mean_anomaly_deg": 78.975,
      "mean_motion_rev_day": 15.27606931
    },
    {
      "epoch": "2026-04-11T13:12:01.644192Z",
      "apogee_km": 484.21789322284167,
      "perigee_km": 481.7890494959802,
      "latitude_deg": 1.511240874936509e-05,
      "longitude_deg": 138.0540637149166,
      "height_km": 482.78325147207465,
      "semi_major_axis_km": 6861.14047135941,
      "eccentricity": 0.000177,
      "inclination_deg": 43.0003,
      "raan_deg": 175.8288,
      "arg_perigee_deg": 269.8702,
      "mean_anomaly_deg": 90.1947,
      "mean_motion_rev_day": 15.27595237
    }
  ]
}